[
    {
        "OBJECT_NAME": "NAVSTAR 72 (USA 258)",
        "OBJECT_ID": "2014-068A",
        "EPOCH": "2025-04-12T03:33:31.299552",
        "MEAN_MOTION": 2.00578818,
        "ECCENTRICITY": 0.005781,
        "INCLINATION": 56.6726,
        "RA_OF_ASC_NODE": 47.6097,
        "ARG_OF_PERICENTER": 64.0501,
        "MEAN_ANOMALY": 296.5192,
        "EPHEMERIS_TYPE": 0,
        "CLASSIFICATION_TYPE": "U",
        "NORAD_CAT_ID": 40294,
        "ELEMENT_SET_NO": 999,
        "REV_AT_EPOCH": 7656,
        "BSTAR": 0,
        "MEAN_MOTION_DOT": -7.7e-07,
        "MEAN_MOTION_DDOT": 0
    },
    {
        "OBJECT_NAME": "NAVSTAR 73 (USA 260)",
        "OBJECT_ID": "2015-013A",
        "EPOCH": "2025-04-13T18:57:25.485120",
        "MEAN_MOTION": 2.00547123,
        "ECCENTRICITY": 0.0097663,
        "INCLINATION": 53.253,
        "RA_OF_ASC_NODE": 221.9447,
        "ARG_OF_PERICENTER": 34.7324,
        "MEAN_ANOMALY": 325.8866,
        "EPHEMERIS_TYPE": 0,
        "CLASSIFICATION_TYPE": "U",
        "NORAD_CAT_ID": 40534,
        "ELEMENT_SET_NO": 999,
        "REV_AT_EPOCH": 7321,
        "BSTAR": 0,
        "MEAN_MOTION_DOT": -4e-08,
        "MEAN_MOTION_DDOT": 0
    },
    {
        "OBJECT_NAME": "NAVSTAR 75 (USA 265)",
        "OBJECT_ID": "2015-062A",
        "EPOCH": "2025-04-13T12:07:30.696960",
        "MEAN_MOTION": 2.00566773,
        "ECCENTRICITY": 0.0102872,
        "INCLINATION": 56.6507,
        "RA_OF_ASC_NODE": 47.4132,
        "ARG_OF_PERICENTER": 228.6693,
        "MEAN_ANOMALY": 130.4226,
        "EPHEMERIS_TYPE": 0,
        "CLASSIFICATION_TYPE": "U",
        "NORAD_CAT_ID": 41019,
        "ELEMENT_SET_NO": 999,
        "REV_AT_EPOCH": 6921,
        "BSTAR": 0,
        "MEAN_MOTION_DOT": -7.2e-07,
        "MEAN_MOTION_DDOT": 0
    },
    {
        "OBJECT_NAME": "NAVSTAR 76 (USA 266)",
        "OBJECT_ID": "2016-007A",
        "EPOCH": "2025-04-12T14:13:33.973248",
        "MEAN_MOTION": 2.00572982,
        "ECCENTRICITY": 0.0087595,
        "INCLINATION": 55.2675,
        "RA_OF_ASC_NODE": 106.5504,
        "ARG_OF_PERICENTER": 242.2525,
        "MEAN_ANOMALY": 116.8846,
        "EPHEMERIS_TYPE": 0,
        "CLASSIFICATION_TYPE": "U",
        "NORAD_CAT_ID": 41328,
        "ELEMENT_SET_NO": 999,
        "REV_AT_EPOCH": 6720,
        "BSTAR": 0,
        "MEAN_MOTION_DOT": 4.2e-07,
        "MEAN_MOTION_DDOT": 0
    },
    {
        "OBJECT_NAME": "NAVSTAR 78 (USA 293)",
        "OBJECT_ID": "2019-056A",
        "EPOCH": "2025-04-13T15:03:53.413920",
        "MEAN_MOTION": 2.00561611,
        "ECCENTRICITY": 0.0049869,
        "INCLINATION": 55.7979,
        "RA_OF_ASC_NODE": 348.1914,
        "ARG_OF_PERICENTER": 193.3615,
        "MEAN_ANOMALY": 348.9453,
        "EPHEMERIS_TYPE": 0,
        "CLASSIFICATION_TYPE": "U",
        "NORAD_CAT_ID": 44506,
        "ELEMENT_SET_NO": 999,
        "REV_AT_EPOCH": 4145,
        "BSTAR": 0,
        "MEAN_MOTION_DOT": -9.2e-07,
        "MEAN_MOTION_DDOT": 0
    },
    {
        "OBJECT_NAME": "NAVSTAR 80 (USA 309)",
        "OBJECT_ID": "2020-078A",
        "EPOCH": "2025-04-13T11:44:38.613120",
        "MEAN_MOTION": 2.0055857,
        "ECCENTRICITY": 0.0056902,
        "INCLINATION": 54.0789,
        "RA_OF_ASC_NODE": 228.2106,
        "ARG_OF_PERICENTER": 199.9609,
        "MEAN_ANOMALY": 155.5328,
        "EPHEMERIS_TYPE": 0,
        "CLASSIFICATION_TYPE": "U",
        "NORAD_CAT_ID": 46826,
        "ELEMENT_SET_NO": 999,
        "REV_AT_EPOCH": 3288,
        "BSTAR": 0,
        "MEAN_MOTION_DOT": -1.1e-07,
        "MEAN_MOTION_DDOT": 0
    },
    {
        "OBJECT_NAME": "NAVSTAR 81 (USA 319)",
        "OBJECT_ID": "2021-054A",
        "EPOCH": "2025-04-10T11:54:42.350400",
        "MEAN_MOTION": 2.00568226,
        "ECCENTRICITY": 0.0018626,
        "INCLINATION": 55.3298,
        "RA_OF_ASC_NODE": 349.8286,
        "ARG_OF_PERICENTER": 229.2921,
        "MEAN_ANOMALY": 314.6706,
        "EPHEMERIS_TYPE": 0,
        "CLASSIFICATION_TYPE": "U",
        "NORAD_CAT_ID": 48859,
        "ELEMENT_SET_NO": 999,
        "REV_AT_EPOCH": 2807,
        "BSTAR": 0,
        "MEAN_MOTION_DOT": -1.02e-06,
        "MEAN_MOTION_DDOT": 0
    },
    {
        "OBJECT_NAME": "NAVSTAR 82 (USA 343)",
        "OBJECT_ID": "2023-009A",
        "EPOCH": "2025-04-12T15:18:46.078848",
        "MEAN_MOTION": 2.00573202,
        "ECCENTRICITY": 0.000247,
        "INCLINATION": 55.0888,
        "RA_OF_ASC_NODE": 165.4262,
        "ARG_OF_PERICENTER": 334.5707,
        "MEAN_ANOMALY": 353.2066,
        "EPHEMERIS_TYPE": 0,
        "CLASSIFICATION_TYPE": "U",
        "NORAD_CAT_ID": 55268,
        "ELEMENT_SET_NO": 999,
        "REV_AT_EPOCH": 1660,
        "BSTAR": 0,
        "MEAN_MOTION_DOT": 4.7e-07,
        "MEAN_MOTION_DDOT": 0
    },
    {
        "OBJECT_NAME": "NAVSTAR 83 (USA 440)",
        "OBJECT_ID": "2024-242A",
        "EPOCH": "2025-04-11T07:22:04.360224",
        "MEAN_MOTION": 2.00557723,
        "ECCENTRICITY": 0.0005199,
        "INCLINATION": 54.9845,
        "RA_OF_ASC_NODE": 351.6695,
        "ARG_OF_PERICENTER": 335.246,
        "MEAN_ANOMALY": 192.3426,
        "EPHEMERIS_TYPE": 0,
        "CLASSIFICATION_TYPE": "U",
        "NORAD_CAT_ID": 62339,
        "ELEMENT_SET_NO": 999,
        "REV_AT_EPOCH": 259,
        "BSTAR": 0,
        "MEAN_MOTION_DOT": -1.03e-06,
        "MEAN_MOTION_DDOT": 0
    }
]