GPS BIIF-8  (PRN 03)    
1 40294U 14068A   25102.14827893 -.00000077  00000+0  00000+0 0  9993
2 40294  56.6726  47.6097 0057810  64.0501 296.5192  2.00578818 76560
GPS BIIF-9  (PRN 26)    
1 40534U 15013A   25103.78987830 -.00000004  00000+0  00000+0 0  9990
2 40534  53.2530 221.9447 0097663  34.7324 325.8866  2.00547123 73214
GPS BIIF-11 (PRN 10)    
1 41019U 15062A   25103.50521640 -.00000072  00000+0  00000+0 0  9991
2 41019  56.6507  47.4132 0102872 228.6693 130.4226  2.00566773 69215
GPS BIIF-12 (PRN 32)    
1 41328U 16007A   25102.59275432  .00000042  00000+0  00000+0 0  9993
2 41328  55.2675 106.5504 0087595 242.2525 116.8846  2.00572982 67201
GPS BIII-2  (PRN 18)    
1 44506U 19056A   25103.62770155 -.00000092  00000+0  00000+0 0  9994
2 44506  55.7979 348.1914 0049869 193.3615 348.9453  2.00561611 41459
GPS BIII-4  (PRN 14)    
1 46826U 20078A   25103.48933580 -.00000011  00000+0  00000+0 0  9995
2 46826  54.0789 228.2106 0056902 199.9609 155.5328  2.00558570 32889
GPS BIII-5  (PRN 11)    
1 48859U 21054A   25100.49632350 -.00000102  00000+0  00000+0 0  9998
2 48859  55.3298 349.8286 0018626 229.2921 314.6706  2.00568226 28073
GPS BIII-6  (PRN 28)    
1 55268U 23009A   25102.63803332  .00000047  00000+0  00000+0 0  9997
2 55268  55.0888 165.4262 0002470 334.5707 353.2066  2.00573202 16609
GPS BIII-7  (PRN 01)    
1 62339U 24242A   25101.30699491 -.00000103  00000+0  00000+0 0  9990
2 62339  54.9845 351.6695 0005199 335.2460 192.3426  2.00557723  2596
